ORBCOMM FM37            
1 33064U 08031E   24261.83986720  .00006212  00000+0  89055-3 0  9996
2 33064  48.4394 196.4038 0005755 288.0451 101.9527 14.77464151874061
ORBCOMM FM40            
1 33065U 08031F   24261.84764951  .00007566  00000+0  10388-2 0  9993
2 33065  48.4415 184.3763 0006880 296.7112 105.6764 14.79046940874245
VESSELSAT 1             
1 37840U 11058C   24261.74875381  .00000770  00000+0  27595-3 0  9999
2 37840  19.9624 302.2684 0013834  70.3052 289.8844 14.11217003668009
ORBCOMM FM109           
1 40086U 14040A   24261.60627269  .00005626  00000+0  12703-2 0  9993
2 40086  47.0020 222.7803 0001302 159.8147 200.2790 14.57187181541292
ORBCOMM FM107           
1 40087U 14040B   24261.84649503  .00002674  00000+0  62404-3 0  9999
2 40087  47.0034 222.6364 0000592 103.3157 256.7794 14.57132112541445
ORBCOMM FM106           
1 40088U 14040C   24261.79122502  .00004035  00000+0  73086-3 0  9990
2 40088  47.0597  66.3182 0018592 242.0650 117.8358 14.67755085543647
ORBCOMM FM111           
1 40089U 14040D   24261.44802935  .00015135  00000+0  18433-2 0  9995
2 40089  47.0040 313.4076 0033404 327.7723  32.1131 14.83027551549697
ORBCOMM FM104           
1 40090U 14040E   24261.40506390  .00004553  00000+0  10698-2 0  9996
2 40090  47.0031 255.1201 0016604  35.8453 324.3543 14.55591997540863
